IRIDIUM 150             
1 43257U 18030J   26017.86675125  .00000248  00000+0  81590-4 0  9999
2 43257  86.3986 353.3030 0002252  84.0197 276.1255 14.34217237408611
IRIDIUM 143             
1 43258U 18030K   26017.98726191  .00000053  00000+0  11787-4 0  9998
2 43258  86.3991 353.3395 0002285  81.5890 278.5565 14.34218014408568
IRIDIUM 161             
1 43478U 18047C   26017.85973690  .00000308  00000+0  85604-4 0  9996
2 43478  86.4537 151.3010 0001986 103.8155 256.3267 14.43280034403455
IRIDIUM 152             
1 43479U 18047D   26017.89021091  .00000162  00000+0  50676-4 0  9999
2 43479  86.4009 151.1486 0002072  99.8476 260.2954 14.34218476400941
IRIDIUM 147             
1 43480U 18047E   26017.89655392  .00000019  00000+0 -11575-6 0  9997
2 43480  86.4016 151.1489 0001841  92.6188 267.5219 14.34217589400946
IRIDIUM 110             
1 43481U 18047F   26017.41451650  .00000024  00000+0  15802-5 0  9998
2 43481  86.4014 151.4376 0001968 109.6565 250.4843 14.34217714400866
IRIDIUM 162             
1 43482U 18047G   26017.85344276  .00000318  00000+0  88652-4 0  9990
2 43482  86.4533 151.1964 0002409  96.2831 263.8645 14.43284227403449
IRIDIUM 160             
1 43569U 18061A   26017.70919521  .00000263  00000+0  86756-4 0  9999
2 43569  86.3993 119.7299 0001978 102.7953 257.3464 14.34218476391809
